satname,norad_id,inclination_deg,eccentricity,mean_motion_rev_per_day,perigee_km,apogee_km,l1,l2
STARLINK-1573,46061,53.1592,0.0001037,15.31706037,470.01177262366673,471.4322259801211,1 46061U 20055AL  26192.18478576  .00000480  00000+0  27230-4 0  9994,2 46061  53.1592 259.2907 0001037  83.8051 276.3069 15.31706037327990
STARLINK-1577,46063,53.1599,0.0008251,15.31411243,465.94918132560633,477.2526188082966,1 46063U 20055AN  26192.66963105 -.00075222  00000+0 -24556-2 0  9990,2 46063  53.1599 257.0279 0008251  70.3999 289.7892 15.31411243328067
STARLINK-1583,46064,53.1592,0.0001162,15.31702726,469.9360306109511,471.5277077361461,1 46064U 20055AP  26190.53029163  .00000708  00000+0  34581-4 0  9998,2 46064  53.1592 267.4907 0001162  86.6250 273.4885 15.31702726327721
STARLINK-1536,46070,53.158,0.000112,15.31708168,469.94857545441755,471.48271844733426,1 46070U 20055AV  26192.61958696  .00001735  00000+0  67633-4 0  9993,2 46070  53.1580 245.1498 0001120  77.7547 282.3580 15.31708168328220
STARLINK-1542,46073,53.1548,0.0001975,15.31693598,469.4064223453197,472.11173629665245,1 46073U 20055AY  26192.64396382 -.00003473  00000+0 -10021-3 0  9998,2 46073  53.1548 248.0029 0001975  97.3455 262.7770 15.31693598328170
STARLINK-1549,46074,53.0497,0.0002308,15.3430861,461.3959554066414,464.5538126523088,1 46074U 20055AZ  26192.46114231  .00016671  00000+0  50484-3 0  9999,2 46074  53.0497 245.4941 0002308  32.5011 327.6132 15.34308610328171
STARLINK-1551,46075,53.1599,0.0001382,15.316966,469.80361426604304,471.6966466689046,1 46075U 20055BA  26192.15385291 -.00000884  00000+0 -16716-4 0  9994,2 46075  53.1599 247.2572 0001382  76.4533 283.6622 15.31696600328141
STARLINK-1552,46076,53.1591,0.0001147,15.31685782,469.9968076189225,471.5679497243891,1 46076U 20055BB  26192.46605644  .00004008  00000+0  14090-3 0  9998,2 46076  53.1591 245.3852 0001147  81.5097 278.6035 15.31685782328180
STARLINK-1559,46077,53.0192,0.0004441,15.41524789,438.57982155429454,444.63711948120726,1 46077U 20055BC  26192.47700862  .00034431  00000+0  81385-3 0  9992,2 46077  53.0192 212.3429 0004441  23.5348 336.5859 15.41524789328601
STARLINK-1566,46079,53.1585,0.0001259,15.31697645,469.88474086956376,471.60928986463296,1 46079U 20055BE  26192.47070074 -.00000503  00000+0 -44293-5 0  9993,2 46079  53.1585 245.2157 0001259  77.7954 282.3189 15.31697645328202
STARLINK-1568,46080,53.0552,0.0003092,15.57142529,393.83716222779185,398.0262463145136,1 46080U 20055BF  26192.28438496  .00030079  00000+0  41218-3 0  9991,2 46080  53.0552 158.4772 0003092  97.8679 262.2683 15.57142529329389
STARLINK-1578,46082,53.1589,0.0001079,15.31703699,469.9899760832923,471.46796135934255,1 46082U 20055BH  26192.14883741 -.00000033  00000+0  10686-4 0  9999,2 46082  53.1589 247.2326 0001079  75.8658 284.2463 15.31703699328146
STARLINK-1579,46083,53.1573,0.0001141,15.31704921,469.94387082859066,471.50678121138844,1 46083U 20055BJ  26192.46138370  .00000085  00000+0  14500-4 0  9991,2 46083  53.1573 245.3080 0001141  72.1501 287.9625 15.31704921328197
STARLINK-1622,46128,53.0065,0.0011775,16.07559565,245.73770729178796,261.35532196874374,1 46128U 20057M   26192.89258212  .00549942  16057-3  66151-3 0  9999,2 46128  53.0065 321.5083 0011775 311.5309  48.4712 16.07559565326980
STARLINK-1623,46129,53.0363,0.0002612,15.85601693,312.88290030670305,316.3792023367123,1 46129U 20057N   26192.72109105  .00155111  00000+0  62037-3 0  9995,2 46129  53.0363   4.2795 0002612 258.1077 101.9653 15.85601693326383
STARLINK-1596,46141,53.0326,0.0002185,15.6595971,369.00548436797635,371.95463002196993,1 46141U 20057AA  26192.72433406  .00045646  00000+0  44194-3 0  9998,2 46141  53.0326 350.9038 0002185 207.7108 152.3790 15.65959710326574
STARLINK-1597,46142,53.0375,0.0003763,15.84243696,315.9352243212161,320.9750795747723,1 46142U 20057AB  26192.83807575  .00139182  00000+0  59539-3 0  9991,2 46142  53.0375  43.6010 0003763 222.0575 138.0159 15.84243696325834
STARLINK-1608,46146,53.1565,0.0005023,15.39260183,444.86685770804525,451.7246920737007,1 46146U 20057AF  26191.93661689  .00036776  00000+0  93563-3 0  9999,2 46146  53.1565  93.7603 0005023  93.0318 267.1262 15.39260183325093
STARLINK-1545,46156,53.0231,0.0013808,16.29953193,183.59262031750313,201.7385487349302,1 46156U 20057AR  26193.04345942  .04397111  12108-4  91587-3 0  9993,2 46156  53.0231 355.1063 0013808 294.9638  64.9969 16.29953193327780
STARLINK-1595,46159,53.0374,0.0003356,15.81104108,325.06678953796927,329.5674903567033,1 46159U 20057AU  26192.79729481  .00118480  00000+0  58909-3 0  9991,2 46159  53.0374  47.1918 0003356 197.3502 162.7405 15.81104108327043
STARLINK-1598,46160,53.0423,0.0003211,15.79567454,329.5107718578738,333.81980688810927,1 46160U 20057AV  26192.85241627  .00098281  00000+0  52610-3 0  9990,2 46160  53.0423  33.2904 0003211 286.9141  73.1527 15.79567454327230
STARLINK-1626,46167,53.0367,0.0005132,15.84947507,313.03687466182873,319.9082219021857,1 46167U 20057BC  26192.81678937  .00134924  00000+0  55823-3 0  9995,2 46167  53.0367  41.8787 0005132 253.2541 106.7919 15.84947507325865
STARLINK-1633,46171,53.0273,0.0010275,16.01125615,264.4681421905325,278.1327361280046,1 46171U 20057BG  26192.71990185  .00360388  67042-4  64435-3 0  9999,2 46171  53.0273   0.6706 0010275 294.8212  65.1749 16.01125615327689
STARLINK-1640,46173,53.0369,0.0002812,15.813091,324.85221182543955,328.62303331317344,1 46173U 20057BJ  26192.83082345  .00065970  00000+0  32847-3 0  9991,2 46173  53.0369  48.0235 0002812 194.7791 165.3149 15.81309100325773
STARLINK-1641,46174,53.0448,0.0002958,15.68357106,361.60679181894193,365.5952040185093,1 46174U 20057BK  26192.81664748  .00050064  00000+0  43923-3 0  9998,2 46174  53.0448  42.5634 0002958 252.2732 107.7961 15.68357106325855
STARLINK-1695,46329,53.0383,0.0004462,15.84945338,313.4915184968413,319.4657935082587,1 46329U 20062E   26192.14747618  .00153475  00000+0  63343-3 0  9998,2 46329  53.0383  88.1562 0004462 223.5818 136.4853 15.84945338324237
STARLINK-1719,46331,53.0279,0.0005675,15.97782779,276.7929011159431,284.3505355112302,1 46331U 20062G   26192.91670139  .00325625  54427-4  70801-3 0  9991,2 46331  53.0279  81.6102 0005675 228.7131 310.3623 15.97782779  5904
STARLINK-1759,46340,53.0042,0.0005817,16.0910923,245.43286195602377,253.14320824185688,1 46340U 20062R   26193.03921212  .00708051  27593-3  77729-3 0  9993,2 46340  53.0042  69.0982 0005817 240.4668 119.5785 16.09109230324565
